[{"OBJECT_NAME":"STARLINK-32854","OBJECT_ID":"2025-018L","EPOCH":"2026-03-09T20:34:38.294688","MEAN_MOTION":15.30219318,"ECCENTRICITY":0.00010372,"INCLINATION":53.1606,"RA_OF_ASC_NODE":308.8489,"ARG_OF_PERICENTER":107.2316,"MEAN_ANOMALY":252.8799,"EPHEMERIS_TYPE":0,"CLASSIFICATION_TYPE":"U","NORAD_CAT_ID":62816,"ELEMENT_SET_NO":999,"REV_AT_EPOCH":6318,"BSTAR":0.0013266695,"MEAN_MOTION_DOT":0.00039164,"MEAN_MOTION_DDOT":0},{"OBJECT_NAME":"CZ-2C R\/B","OBJECT_ID":"2017-085D","EPOCH":"2026-03-09T07:36:19.955232","MEAN_MOTION":15.36259494,"ECCENTRICITY":0.00550258,"INCLINATION":34.6583,"RA_OF_ASC_NODE":163.0948,"ARG_OF_PERICENTER":204.4819,"MEAN_ANOMALY":155.3278,"EPHEMERIS_TYPE":0,"CLASSIFICATION_TYPE":"U","NORAD_CAT_ID":43084,"ELEMENT_SET_NO":999,"REV_AT_EPOCH":45326,"BSTAR":0.00049058122,"MEAN_MOTION_DOT":0.00018774,"MEAN_MOTION_DDOT":0}]
